{
  "type": "FeatureCollection",
  "features": [
    {
      "type": "Feature",
      "properties": {
        "norad_id": 28054,
        "name": "DMSP 5D-3 F16 (USA 172)",
        "group": "weather",
        "lat": -64.29025931658978,
        "lon": 164.4656531778238,
        "alt_km": 850.360683289382,
        "timestamp": "2025-12-12T05:47:28.414300+00:00",
        "meta_object_name": "DMSP 5D-3 F16 (USA 172)",
        "meta_object_id": "2003-048A",
        "meta_epoch": "2025-12-11T23:48:16.545024",
        "meta_mean_motion": 14.14423794,
        "meta_eccentricity": 0.00065282,
        "meta_inclination": 99.0047,
        "meta_ra_of_asc_node": 3.4429,
        "meta_arg_of_pericenter": 323.2515,
        "meta_mean_anomaly": 93.1492,
        "meta_ephemeris_type": 0,
        "meta_classification_type": "U",
        "meta_norad_cat_id": 28054,
        "meta_element_set_no": 999,
        "meta_rev_at_epoch": 14302,
        "meta_bstar": 0.00013425253,
        "meta_mean_motion_dot": 2.12e-06,
        "meta_mean_motion_ddot": 0,
        "tle_line1": "1 28054U 03048A   25345.99185816  .00000212  00000+0  13425-3 0  9992",
        "tle_line2": "2 28054  99.0047   3.4429 0006528 323.2515  93.1492 14.14423794143021"
      },
      "geometry": {
        "type": "Point",
        "coordinates": [
          164.4656531778238,
          -64.29025931658978
        ]
      }
    },
    {
      "type": "Feature",
      "properties": {
        "norad_id": 28912,
        "name": "METEOSAT-9 (MSG-2)",
        "group": "weather",
        "lat": 3.366423766920545,
        "lon": -146.04507577560557,
        "alt_km": 35771.37919546354,
        "timestamp": "2025-12-12T05:47:28.414353+00:00",
        "meta_object_name": "METEOSAT-9 (MSG-2)",
        "meta_object_id": "2005-049B",
        "meta_epoch": "2025-12-11T20:34:34.468032",
        "meta_mean_motion": 1.00276076,
        "meta_eccentricity": 0.00036435,
        "meta_inclination": 8.9379,
        "meta_ra_of_asc_node": 55.9858,
        "meta_arg_of_pericenter": 189.8677,
        "meta_mean_anomaly": 189.2654,
        "meta_ephemeris_type": 0,
        "meta_classification_type": "U",
        "meta_norad_cat_id": 28912,
        "meta_element_set_no": 999,
        "meta_rev_at_epoch": 512,
        "meta_bstar": 0,
        "meta_mean_motion_dot": 1.29e-06,
        "meta_mean_motion_ddot": 0,
        "tle_line1": "1 28912U 05049B   25345.85734338  .00000129  00000+0  00000+0 0  9990",
        "tle_line2": "2 28912   8.9379  55.9858 0003643 189.8677 189.2654  1.00276076  5124"
      },
      "geometry": {
        "type": "Point",
        "coordinates": [
          -146.04507577560557,
          3.366423766920545
        ]
      }
    },
    {
      "type": "Feature",
      "properties": {
        "norad_id": 29522,
        "name": "DMSP 5D-3 F17 (USA 191)",
        "group": "weather",
        "lat": -5.3257734286688425,
        "lon": 170.81914071789436,
        "alt_km": 841.0662816971098,
        "timestamp": "2025-12-12T05:47:28.414370+00:00",
        "meta_object_name": "DMSP 5D-3 F17 (USA 191)",
        "meta_object_id": "2006-050A",
        "meta_epoch": "2025-12-11T23:49:34.190112",
        "meta_mean_motion": 14.14919047,
        "meta_eccentricity": 0.00093763,
        "meta_inclination": 98.7394,
        "meta_ra_of_asc_node": 351.3974,
        "meta_arg_of_pericenter": 227.2083,
        "meta_mean_anomaly": 132.8303,
        "meta_ephemeris_type": 0,
        "meta_classification_type": "U",
        "meta_norad_cat_id": 29522,
        "meta_element_set_no": 999,
        "meta_rev_at_epoch": 98594,
        "meta_bstar": 0.00016934015,
        "meta_mean_motion_dot": 2.84e-06,
        "meta_mean_motion_ddot": 0,
        "tle_line1": "1 29522U 06050A   25345.99275683  .00000284  00000+0  16934-3 0  9998",
        "tle_line2": "2 29522  98.7394 351.3974 0009376 227.2083 132.8303 14.14919047985948"
      },
      "geometry": {
        "type": "Point",
        "coordinates": [
          170.81914071789436,
          -5.3257734286688425
        ]
      }
    },
    {
      "type": "Feature",
      "properties": {
        "norad_id": 32958,
        "name": "FENGYUN 3A",
        "group": "weather",
        "lat": -69.25999602844813,
        "lon": 82.0168774392788,
        "alt_km": 831.4595797973789,
        "timestamp": "2025-12-12T05:47:28.414384+00:00",
        "meta_object_name": "FENGYUN 3A",
        "meta_object_id": "2008-026A",
        "meta_epoch": "2025-12-11T20:09:10.932768",
        "meta_mean_motion": 14.19514245,
        "meta_eccentricity": 0.00079441,
        "meta_inclination": 98.6697,
        "meta_ra_of_asc_node": 285.3855,
        "meta_arg_of_pericenter": 313.1724,
        "meta_mean_anomaly": 46.8788,
        "meta_ephemeris_type": 0,
        "meta_classification_type": "U",
        "meta_norad_cat_id": 32958,
        "meta_element_set_no": 999,
        "meta_rev_at_epoch": 90882,
        "meta_bstar": 0.00012083885,
        "meta_mean_motion_dot": 2.11e-06,
        "meta_mean_motion_ddot": 0,
        "tle_line1": "1 32958U 08026A   25345.83970987  .00000211  00000+0  12084-3 0  9994",
        "tle_line2": "2 32958  98.6697 285.3855 0007944 313.1724  46.8788 14.19514245908829"
      },
      "geometry": {
        "type": "Point",
        "coordinates": [
          82.0168774392788,
          -69.25999602844813
        ]
      }
    },
    {
      "type": "Feature",
      "properties": {
        "norad_id": 35491,
        "name": "GOES 14",
        "group": "weather",
        "lat": -0.5225736461891464,
        "lon": 58.6218411588605,
        "alt_km": 35838.96763979177,
        "timestamp": "2025-12-12T05:47:28.414399+00:00",
        "meta_object_name": "GOES 14",
        "meta_object_id": "2009-033A",
        "meta_epoch": "2025-12-11T23:15:51.058080",
        "meta_mean_motion": 1.000959,
        "meta_eccentricity": 8.198e-05,
        "meta_inclination": 1.2007,
        "meta_ra_of_asc_node": 85.3973,
        "meta_arg_of_pericenter": 160.8826,
        "meta_mean_anomaly": 74.3385,
        "meta_ephemeris_type": 0,
        "meta_classification_type": "U",
        "meta_norad_cat_id": 35491,
        "meta_element_set_no": 999,
        "meta_rev_at_epoch": 471,
        "meta_bstar": 0,
        "meta_mean_motion_dot": -2.7e-07,
        "meta_mean_motion_ddot": 0,
        "tle_line1": "1 35491U 09033A   25345.96934095 -.00000027  00000+0  00000+0 0  9999",
        "tle_line2": "2 35491   1.2007  85.3973 0000819 160.8826  74.3385  1.00095900  4714"
      },
      "geometry": {
        "type": "Point",
        "coordinates": [
          58.6218411588605,
          -0.5225736461891464
        ]
      }
    },
    {
      "type": "Feature",
      "properties": {
        "norad_id": 35951,
        "name": "DMSP 5D-3 F18 (USA 210)",
        "group": "weather",
        "lat": 52.01094982460942,
        "lon": -48.907559357720544,
        "alt_km": 829.6628498423624,
        "timestamp": "2025-12-12T05:47:28.414412+00:00",
        "meta_object_name": "DMSP 5D-3 F18 (USA 210)",
        "meta_object_id": "2009-057A",
        "meta_epoch": "2025-12-11T22:45:11.225376",
        "meta_mean_motion": 14.14768473,
        "meta_eccentricity": 0.00120603,
        "meta_inclination": 98.8834,
        "meta_ra_of_asc_node": 322.3528,
        "meta_arg_of_pericenter": 64.8112,
        "meta_mean_anomaly": 295.4311,
        "meta_ephemeris_type": 0,
        "meta_classification_type": "U",
        "meta_norad_cat_id": 35951,
        "meta_element_set_no": 999,
        "meta_rev_at_epoch": 83311,
        "meta_bstar": 0.00023094067,
        "meta_mean_motion_dot": 4.01e-06,
        "meta_mean_motion_ddot": 0,
        "tle_line1": "1 35951U 09057A   25345.94804659  .00000401  00000+0  23094-3 0  9993",
        "tle_line2": "2 35951  98.8834 322.3528 0012060  64.8112 295.4311 14.14768473833117"
      },
      "geometry": {
        "type": "Point",
        "coordinates": [
          -48.907559357720544,
          52.01094982460942
        ]
      }
    },
    {
      "type": "Feature",
      "properties": {
        "norad_id": 36411,
        "name": "EWS-G2 (GOES 15)",
        "group": "weather",
        "lat": 0.46699378911994693,
        "lon": -130.56559940254496,
        "alt_km": 35765.66748833726,
        "timestamp": "2025-12-12T05:47:28.414425+00:00",
        "meta_object_name": "EWS-G2 (GOES 15)",
        "meta_object_id": "2010-008A",
        "meta_epoch": "2025-12-11T23:43:10.212960",
        "meta_mean_motion": 1.00269643,
        "meta_eccentricity": 0.00057749,
        "meta_inclination": 0.8124,
        "meta_ra_of_asc_node": 86.0599,
        "meta_arg_of_pericenter": 174.4597,
        "meta_mean_anomaly": 237.6272,
        "meta_ephemeris_type": 0,
        "meta_classification_type": "U",
        "meta_norad_cat_id": 36411,
        "meta_element_set_no": 999,
        "meta_rev_at_epoch": 5776,
        "meta_bstar": 0,
        "meta_mean_motion_dot": 4.7e-07,
        "meta_mean_motion_ddot": 0,
        "tle_line1": "1 36411U 10008A   25345.98831265  .00000047  00000+0  00000+0 0  9994",
        "tle_line2": "2 36411   0.8124  86.0599 0005774 174.4597 237.6272  1.00269643 57764"
      },
      "geometry": {
        "type": "Point",
        "coordinates": [
          -130.56559940254496,
          0.46699378911994693
        ]
      }
    }
  ]
}